[{"OBJECT_NAME":"MCUBED-2","OBJECT_ID":"2013-072L","EPOCH":"2026-03-09T22:49:27.284736","MEAN_MOTION":15.59782731,"ECCENTRICITY":0.0052286,"INCLINATION":120.4818,"RA_OF_ASC_NODE":108.7467,"ARG_OF_PERICENTER":309.4194,"MEAN_ANOMALY":50.2277,"EPHEMERIS_TYPE":0,"CLASSIFICATION_TYPE":"U","NORAD_CAT_ID":39472,"ELEMENT_SET_NO":999,"REV_AT_EPOCH":10128,"BSTAR":0.0011197913,"MEAN_MOTION_DOT":0.00097876,"MEAN_MOTION_DDOT":0},{"OBJECT_NAME":"STARLINK-11548 [DTC]","OBJECT_ID":"2025-019A","EPOCH":"2026-03-08T22:11:10.516128","MEAN_MOTION":15.70915347,"ECCENTRICITY":0.00023283,"INCLINATION":42.9982,"RA_OF_ASC_NODE":310.304,"ARG_OF_PERICENTER":274.6141,"MEAN_ANOMALY":85.446,"EPHEMERIS_TYPE":0,"CLASSIFICATION_TYPE":"U","NORAD_CAT_ID":62829,"ELEMENT_SET_NO":999,"REV_AT_EPOCH":6376,"BSTAR":0.00082002419,"MEAN_MOTION_DOT":0.00106473,"MEAN_MOTION_DDOT":0}]
